ONEWEB-0492             
1 54114U 22138B   25190.54376018  .00000095  00000+0  20538-3 0  9996
2 54114  87.9212  13.0873 0002027  86.5309 273.6055 13.19723746131646
ONEWEB-0495             
1 54115U 22138C   25190.52165554  .00000100  00000+0  21823-3 0  9991
2 54115  87.9214  13.1029 0002538  96.3896 263.7526 13.19726519131622
ONEWEB-0497             
1 54116U 22138D   25190.53429463  .00000132  00000+0  29648-3 0  9993
2 54116  87.9211  13.0718 0001963  91.2486 268.8872 13.19726088131614
ONEWEB-0499             
1 54117U 22138E   25190.51691553  .00000058  00000+0  11361-3 0  9993
2 54117  87.9214  13.0937 0001909 101.7072 258.4275 13.19724589131626
ONEWEB-0500             
1 54118U 22138F   25190.52007165  .00000107  00000+0  23386-3 0  9990
2 54118  87.9211  13.0772 0001863  88.9911 271.1435 13.19724953131634
ONEWEB-0501             
1 54119U 22138G   25190.55007914  .00000068  00000+0  13739-3 0  9993
2 54119  87.9210  13.0644 0002237  96.1235 264.0152 13.19723923131619
ONEWEB-0502             
1 54120U 22138H   25190.53586365  .00000106  00000+0  23339-3 0  9995
2 54120  87.9209  13.0512 0002052  97.2674 262.8692 13.19724236131632
ONEWEB-0503             
1 54121U 22138J   25190.52480964  .00000110  00000+0  24215-3 0  9992
2 54121  87.9208  13.0581 0001681  99.0798 261.0525 13.19725162131626
